ADRAS-J                 
1 58992U 24034A   24149.61980270  .00002993  00000+0  28225-3 0  9993
2 58992  98.2118 121.7590 0045739 112.4528 248.1544 14.93829245 14943
